CCSDS_OMM_VERS,COMMENT,CREATION_DATE,ORIGINATOR,OBJECT_NAME,OBJECT_ID,CENTER_NAME,REF_FRAME,TIME_SYSTEM,MEAN_ELEMENT_THEORY,EPOCH,MEAN_MOTION,ECCENTRICITY,INCLINATION,RA_OF_ASC_NODE,ARG_OF_PERICENTER,MEAN_ANOMALY,EPHEMERIS_TYPE,CLASSIFICATION_TYPE,NORAD_CAT_ID,ELEMENT_SET_NO,REV_AT_EPOCH,BSTAR,MEAN_MOTION_DOT,MEAN_MOTION_DDOT,SEMIMAJOR_AXIS,PERIOD,APOAPSIS,PERIAPSIS,OBJECT_TYPE,RCS_SIZE,COUNTRY_CODE,LAUNCH_DATE,SITE,DECAY_DATE,FILE,GP_ID,TLE_LINE0,TLE_LINE1,TLE_LINE2,NORAD_KEY,JCAT,DeepCat,Satcat,Piece,Active,Type,Name,LDate,Parent,Owner,State,SDate,ExpandedStatus,DDate,ODate,Period,Perigee,PF,Apogee,AF,Inc,IF,OpOrbit,SATCAT_KEY
3.0,GENERATED VIA SPACE-TRACK.ORG API,2026-05-06T14:56:52,18 SPCS,SBIRS GEO 5 (USA 315),2021-042A,EARTH,TEME,UTC,SGP4,2026-05-06T13:11:51.751392,1.00272194,0.0001643,5.1576,328.8069,87.3306,100.0441,0,U,48618,999,1835,0.00000000000000,-0.00000265,0.0000000000000,42164.617,1436.091,35793.41,35779.555,PAYLOAD,LARGE,US,2021-05-18,AFETR,,5177374,322302045,0 SBIRS GEO 5 (USA 315),1 48618U 21042A   26126.54990453 -.00000265  00000-0  00000+0 0  9995,2 48618   5.1576 328.8069 0001643  87.3306 100.0441  1.00272194 18353,48618,S48618,-,48618,2021-042A,A,P ------,SBIRS GEO-5,2021 May 18,A09759,USSF,US,2021 May 18 1819,In Earth orbit,-,2026 May  5 ,    1436.086 ,   35779, ,   35793, ,  5.16 , ,GEO/I,48618
3.0,GENERATED VIA SPACE-TRACK.ORG API,2026-05-06T14:46:56,18 SPCS,TERRESTAR 1,2009-035A,EARTH,TEME,UTC,SGP4,2026-05-06T08:02:38.726880,1.00271888,0.0002749,5.1592,48.806,354.2569,190.7548,0,U,35496,999,6171,0.00000000000000,-0.00000048,0.0000000000000,42164.703,1436.095,35798.159,35774.977,PAYLOAD,LARGE,US,2009-07-01,FRGUI,,5177345,322295666,0 TERRESTAR 1,1 35496U 09035A   26126.33517045 -.00000048  00000-0  00000+0 0  9991,2 35496   5.1592  48.8060 0002749 354.2569 190.7548  1.00271888 61717,35496,S35496,-,35496,2009-035A,P,P,T1,2009 Jul  1,S35497,DISHE,US,2009 Jul  1 1818,In Earth orbit,-,2026 May  4 ,    1436.117 ,   35775, ,   35798, ,  5.16 , ,GEO/I,35496
3.0,GENERATED VIA SPACE-TRACK.ORG API,2026-05-06T10:08:52,18 SPCS,METEOSAT 1,1977-108A,EARTH,TEME,UTC,SGP4,2026-05-06T04:40:32.948256,1.00314736,0.00107093,5.1809,281.6534,95.7553,296.1697,0,U,10489,999,13679,0.00000000000000,0.00000128,0.0000000000000,42152.695,1435.482,35819.703,35729.418,PAYLOAD,LARGE,ESA,1977-11-23,AFETR,,5176958,322261690,0 METEOSAT 1,1 10489U 77108A   26126.19482579  .00000128  00000-0  00000-0 0  9998,2 10489   5.1809 281.6534 0010709  95.7553 296.1697  1.00314736136798,10489,S10489,-,10489,1977-108A,P,P,Meteosat 1,1977 Nov 23,S10950,ESA,I-ESA,1977 Nov 23 0200,In Earth orbit,-,2026 May  5 ,    1435.488 ,   35729, ,   35819, ,  5.18 , ,GEO/ID,10489
3.0,GENERATED VIA SPACE-TRACK.ORG API,2026-05-06T10:08:52,18 SPCS,GSAT 12,2011-034A,EARTH,TEME,UTC,SGP4,2026-05-06T02:49:34.419072,0.98863275,0.00043388,5.1926,76.5886,182.0018,358.0659,0,U,37746,999,4291,0.00000000000000,-0.00000199,0.0000000000000,42564.269,1456.557,36204.602,36167.666,PAYLOAD,LARGE,IND,2011-07-15,SRI,,5176958,322271131,0 GSAT 12,1 37746U 11034A   26126.11775948 -.00000199  00000-0  00000-0 0  9995,2 37746   5.1926  76.5886 0004339 182.0018 358.0659  0.98863275 42911,37746,S37746,-,37746,2011-034A,P,P,GSAT-12,2011 Jul 15,S37747,ISRO,IN,2011 Jul 15 1138,In Earth orbit,-,2026 May  5 ,    1456.558 ,   36167, ,   36204, ,  5.19 , ,GEO/ID,37746
3.0,GENERATED VIA SPACE-TRACK.ORG API,2026-05-06T14:56:52,18 SPCS,SKYNET 5A,2007-007B,EARTH,TEME,UTC,SGP4,2026-05-06T11:28:37.603200,1.00269375,0.0004154,5.1967,74.2336,342.1683,75.3097,0,U,30794,999,7028,0.00000000000000,-0.00000262,0.0000000000000,42165.408,1436.131,35804.788,35769.757,PAYLOAD,LARGE,UK,2007-03-11,FRGUI,,5177681,322310076,0 SKYNET 5A,1 30794U 07007B   26126.47821300 -.00000262  00000-0  00000+0 0  9999,2 30794   5.1967  74.2336 0004154 342.1683  75.3097  1.00269375 70280,30794,S30794,-,30794,2007-007B,P,P,Skynet 5A,2007 Mar 11,S30796,BABCK,UK,2007 Mar 11 2229,In Earth orbit,-,2026 May  5 ,    1436.125 ,   35769, ,   35804, ,  5.19 , ,GEO/I,30794
3.0,GENERATED VIA SPACE-TRACK.ORG API,2026-05-06T14:36:32,18 SPCS,EUTE 28B (EUTE W2M),2008-065B,EARTH,TEME,UTC,SGP4,2026-05-06T11:41:32.859168,0.98762215,0.0003055,5.2237,74.8827,314.1214,122.6979,0,U,33460,999,6338,0.00000000000000,-0.00000115,0.0000000000000,42593.3,1458.047,36228.178,36202.153,PAYLOAD,LARGE,EUTE,2008-12-20,FRGUI,,5176994,322292891,0 EUTE 28B (EUTE W2M),1 33460U 08065B   26126.48718587 -.00000115  00000-0  00000+0 0  9997,2 33460   5.2237  74.8827 0003055 314.1214 122.6979  0.98762215 63388,33460,S33460,-,33460,2008-065B,P,P,EUTELSAT 12 WEST E,2008 Dec 20,S33461,EUTSA,F,2008 Dec 20 2307,In Earth orbit,-,2026 May  5 ,    1458.037 ,   36201, ,   36228, ,  5.22 , ,GEO/ID,33460
3.0,GENERATED VIA SPACE-TRACK.ORG API,2026-05-06T14:46:56,18 SPCS,IRNSS 1F,2016-015A,EARTH,TEME,UTC,SGP4,2026-05-06T11:35:04.047072,1.00278897,0.0016771,5.2442,97.7337,191.1587,141.8347,0,U,41384,999,3724,0.00000000000000,0.00000167,0.0000000000000,42162.738,1435.995,35855.314,35713.892,PAYLOAD,,IND,2016-03-10,SRI,,5177172,322297998,0 IRNSS 1F,1 41384U 16015A   26126.48268573  .00000167  00000-0  00000+0 0  9996,2 41384   5.2442  97.7337 0016771 191.1587 141.8347  1.00278897 37245,41384,S41384,-,41384,2016-015A,A,P,IRNSS-R1F,2016 Mar 10,S41385,ISRO,IN,2016 Mar 10 1050,In Earth orbit,-,2026 May  5 ,    1436.005 ,   35713, ,   35855, ,  5.24 , ,GEO/I,41384
3.0,GENERATED VIA SPACE-TRACK.ORG API,2026-05-06T10:08:52,18 SPCS,NSS 6,2002-057A,EARTH,TEME,UTC,SGP4,2026-05-06T01:22:05.312352,0.9912393,0.00081733,5.2715,74.912,239.1844,334.0452,0,U,27603,999,8550,0.00000000000000,0.00000074,0.0000000000000,42489.619,1452.727,36146.212,36076.756,PAYLOAD,LARGE,SES,2002-12-17,FRGUI,,5176958,322266269,0 NSS 6,1 27603U 02057A   26126.05700593  .00000074  00000-0  00000-0 0  9999,2 27603   5.2715  74.9120 0008173 239.1844 334.0452  0.99123930 85508,27603,S27603,-,27603,2002-057A,P,P      G,NSS 6,2002 Dec 17,S27604,SESSAN,NL,2002 Dec 17 2324,In Earth orbit,-,2026 May  5 ,    1452.733 ,   36076, ,   36146, ,  5.27 , ,GEO/ID,27603
3.0,GENERATED VIA SPACE-TRACK.ORG API,2026-05-06T07:46:49,18 SPCS,LINUSS2,2022-144H,EARTH,TEME,UTC,SGP4,2026-05-05T20:17:41.140320,0.99048912,0.0009302,5.2778,64.4764,310.4316,209.4149,0,U,55247,999,1129,0.00000000000000,0.00000089,0.0000000000000,42511.07,1453.827,36172.479,36093.391,PAYLOAD,,US,2022-11-01,AFETR,,5176635,322251408,0 LINUSS2,1 55247U 22144H   26125.84561505  .00000089  00000-0  00000+0 0  9992,2 55247   5.2778  64.4764 0009302 310.4316 209.4149  0.99048912 11291,55247,S55247,-,55247,2022-144H,A,P,LINUSS2,2022 Nov  1,S54219,LMSSD,US,2023 Jan?,In Earth orbit,-,2026 May  4 ,    1453.831 ,   36093, ,   36172, ,  5.28 , ,GEO/ID,55247
3.0,GENERATED VIA SPACE-TRACK.ORG API,2026-05-06T07:46:49,18 SPCS,LINUSS1,2022-144G,EARTH,TEME,UTC,SGP4,2026-05-05T20:20:25.875744,0.99051939,0.0011444,5.278,64.4825,306.2215,224.1856,0,U,55246,999,1124,0.00000000000000,0.00000087,0.0000000000000,42510.204,1453.783,36180.717,36083.42,PAYLOAD,,US,2022-11-01,AFETR,,5176634,322251402,0 LINUSS1,1 55246U 22144G   26125.84752171  .00000087  00000-0  00000+0 0  9990,2 55246   5.2780  64.4825 0011444 306.2215 224.1856  0.99051939 11249,55246,S55246,-,55246,2022-144G,A,P,LINUSS1,2022 Nov  1,S54219,LMSSD,US,2023 Jan?,In Earth orbit,-,2026 May  4 ,    1453.784 ,   36082, ,   36181, ,  5.28 , ,GEO/ID,55246
3.0,GENERATED VIA SPACE-TRACK.ORG API,2026-05-06T14:56:52,18 SPCS,ASTRA 1F,1996-021A,EARTH,TEME,UTC,SGP4,2026-05-06T09:18:02.381184,0.99118606,4.01e-05,5.3164,74.3567,159.7123,42.1676,0,U,23842,999,5168,0.00000000000000,-0.00000035,0.0000000000000,42491.14,1452.805,36114.709,36111.301,PAYLOAD,LARGE,SES,1996-04-08,TTMTR,,5177521,322306382,0 ASTRA 1F,1 23842U 96021A   26126.38752756 -.00000035  00000-0  00000+0 0  9995,2 23842   5.3164  74.3567 0000401 159.7123  42.1676  0.99118606 51681,23842,S23842,-,23842,1996-021A,P,P      G,Astra 1F,1996 Apr  8,S23845,SESSA,L,1996 Apr  9 0550,In Earth orbit,-,2026 May  5 ,    1452.800 ,   36111, ,   36114, ,  5.31 , ,GEO/ID,23842
3.0,GENERATED VIA SPACE-TRACK.ORG API,2026-05-06T14:56:52,18 SPCS,SPACEWAY 2,2005-046B,EARTH,TEME,UTC,SGP4,2026-05-06T10:06:05.271840,0.99060927,0.0003107,5.3675,72.5125,38.4123,345.5895,0,U,28903,999,5086,0.00000000000000,0.00000043,0.0000000000000,42507.632,1453.651,36142.705,36116.29,PAYLOAD,LARGE,US,2005-11-16,FRGUI,,5177641,322309014,0 SPACEWAY 2,1 28903U 05046B   26126.42089435  .00000043  00000-0  00000+0 0  9995,2 28903   5.3675  72.5125 0003107  38.4123 345.5895  0.99060927 50864,28903,S28903,-,28903,2005-046B,P,P,Spaceway 2,2005 Nov 16,S28905,DTVT,US,2005 Nov 17 0013,In Earth orbit,-,2026 May  4 ,    1453.647 ,   36116, ,   36142, ,  5.36 , ,GEO/ID,28903
3.0,GENERATED VIA SPACE-TRACK.ORG API,2026-05-06T14:46:56,18 SPCS,KIKU 2 (ETS 2),1977-014A,EARTH,TEME,UTC,SGP4,2026-05-06T08:38:34.456128,1.00017951,0.0001324,5.3783,283.6704,115.9171,88.4327,0,U,9852,999,12680,0.00000000000000,-0.00000335,0.0000000000000,42236.041,1439.742,35863.498,35852.314,PAYLOAD,LARGE,JPN,1977-02-23,TNSTA,,5177183,322298159,0 KIKU 2 (ETS 2),1  9852U 77014A   26126.36012102 -.00000335  00000-0  00000+0 0  9996,2  9852   5.3783 283.6704 0001324 115.9171  88.4327  1.00017951126800,9852,S09852,-,09852,1977-014A,P,P,Kiku 2,1977 Feb 23,S09859,JAXA,J,1977 Feb 23 0915,In Earth orbit,-,2026 May  4 ,    1439.732 ,   35852, ,   35863, ,  5.38 , ,GEO/ID,9852
